GPS BIIR-2  (PRN 13)    
1 24876U 97035A   25039.10738069 -.00000045  00000+0  00000+0 0  9992
2 24876  55.7528 117.9040 0086767  54.3190 306.5189  2.00562461202045
GPS BIIR-4  (PRN 20)    
1 26360U 00025A   25039.61749613 -.00000056  00000+0  00000+0 0  9990
2 26360  54.8484  39.2652 0039129 229.4316 229.6583  2.00560774181376
GPS BIIR-5  (PRN 22)    
1 26407U 00040A   25039.41692476  .00000080  00000+0  00000+0 0  9997
2 26407  54.9808 234.7835 0135498 298.3667 213.1240  2.00563700180047
GPS BIIR-8  (PRN 16)    
1 27663U 03005A   25039.28899771  .00000081  00000+0  00000+0 0  9999
2 27663  55.0164 234.5994 0143416  49.4963 150.6779  2.00561395161405
GPS BIIR-11 (PRN 19)    
1 28190U 04009A   25032.46915830 -.00000024  00000+0  00000+0 0  9996
2 28190  55.2542 295.8619 0099962 156.3700 313.2674  2.00571161152908
GPS BIIR-13 (PRN 02)    
1 28474U 04045A   25038.40758860 -.00000104  00000+0  00000+0 0  9998
2 28474  55.3691 344.7881 0167141 300.3113 182.2437  2.00563521148501
GPS BIIRM-1 (PRN 17)    
1 28874U 05038A   25039.41911804 -.00000025  00000+0  00000+0 0  9998
2 28874  55.2928 293.0512 0134630 288.9985 185.6360  2.00569320141934
GPS BIIRM-2 (PRN 31)    
1 29486U 06042A   25039.36997882 -.00000008  00000+0  00000+0 0  9999
2 29486  54.6811 170.9282 0105028  45.0381 294.1286  2.00569364134489
GPS BIIRM-3 (PRN 12)    
1 29601U 06052A   25037.82883658  .00000091  00000+0  00000+0 0  9994
2 29601  55.0559 233.6529 0087985  84.4364 276.5955  2.00554729133476
GPS BIIRM-4 (PRN 15)    
1 32260U 07047A   25034.14869588 -.00000012  00000+0  00000+0 0  9996
2 32260  53.7397 100.6824 0158903  79.6514 282.1989  2.00553493126805
GPS BIIRM-5 (PRN 29)    
1 32384U 07062A   25037.20246125 -.00000034  00000+0  00000+0 0  9990
2 32384  55.4394 294.0387 0028500 154.0347  19.3843  2.00559825125567
GPS BIIRM-6 (PRN 07)    
1 32711U 08012A   25039.04562510 -.00000006  00000+0  00000+0 0  9992
2 32711  54.4577 169.6474 0193204 241.3055 116.7032  2.00554214123845
GPS BIIRM-8 (PRN 05)    
1 35752U 09043A   25039.60542451 -.00000043  00000+0  00000+0 0  9990
2 35752  55.8668  46.9032 0053481  75.0039 340.6031  2.00555347113464
GPS BIIF-1  (PRN 25)    
1 36585U 10022A   25037.66815211  .00000092  00000+0  00000+0 0  9998
2 36585  54.3740 228.5339 0121643  63.3946 152.0412  2.00563264107654
GPS BIIF-3  (PRN 24)    
1 38833U 12053A   25037.23494302  .00000014  00000+0  00000+0 0  9993
2 38833  53.5283 163.9026 0162936  59.6841 301.8872  2.00561303 89499
GPS BIIF-4  (PRN 27)    
1 39166U 13023A   25039.09168012 -.00000016  00000+0  00000+0 0  9996
2 39166  54.9074 289.0517 0131703  46.2002 314.9411  2.00561939 85974
GPS BIIF-5  (PRN 30)    
1 39533U 14008A   25039.58894470 -.00000015  00000+0  00000+0 0  9995
2 39533  53.6083 169.4404 0075273 221.8088 137.5741  2.00555580 79780
GPS BIIF-6  (PRN 06)    
1 39741U 14026A   25039.37445309 -.00000106  00000+0  00000+0 0  9997
2 39741  56.6791 350.7121 0036313 317.7593  41.9547  2.00551523 78637
GPS BIIF-7  (PRN 09)    
1 40105U 14045A   25038.95675864 -.00000043  00000+0  00000+0 0  9998
2 40105  55.0446 108.1856 0028900 118.5930 241.7443  2.00552302 76165
GPS BIIF-8  (PRN 03)    
1 40294U 14068A   25038.83242274 -.00000038  00000+0  00000+0 0  9998
2 40294  56.6200  50.0658 0055180  63.7744 296.8336  2.00574810 75291
GPS BIIF-9  (PRN 26)    
1 40534U 15013A   25038.97046538  .00000078  00000+0  00000+0 0  9999
2 40534  53.2717 224.6272 0097398  34.1751 326.4594  2.00551152 71917
GPS BIIF-10 (PRN 08)    
1 40730U 15033A   25038.13395885 -.00000016  00000+0  00000+0 0  9992
2 40730  54.3889 287.4477 0103517  22.8557 337.6607  2.00554818 70066
GPS BIIF-11 (PRN 10)    
1 41019U 15062A   25039.18904792 -.00000038  00000+0  00000+0 0  9998
2 41019  56.5982  49.9076 0103010 228.1079 131.0483  2.00566573 67929
GPS BIIF-12 (PRN 32)    
1 41328U 16007A   25039.27609691 -.00000042  00000+0  00000+0 0  9996
2 41328  55.2322 109.0682 0086213 240.9787 118.2009  2.00550389 65938
GPS BIII-1  (PRN 04)    
1 43873U 18109A   25039.43618682 -.00000042  00000+0  00000+0 0  9996
2 43873  55.3990 111.6882 0032964 195.8917 174.8297  2.00564467 45178
GPS BIII-2  (PRN 18)    
1 44506U 19056A   25038.31250274 -.00000102  00000+0  00000+0 0  9994
2 44506  55.8140 350.7784 0048743 194.6665 347.6946  2.00559768 40141
GPS BIII-3  (PRN 23)    
1 45854U 20041A   25039.24243897 -.00000041  00000+0  00000+0 0  9995
2 45854  56.3183  48.1734 0050857 199.3661 235.6364  2.00568538 34138
GPS BIII-4  (PRN 14)    
1 46826U 20078A   25039.41236111  .00000077  00000+0  00000+0 0  9993
2 46826  54.0996 230.8108 0053624 198.3783 331.1109  2.00559126 31600
GPS BIII-5  (PRN 11)    
1 48859U 21054A   25039.58995370 -.00000108  00000+0  00000+0 0  9999
2 48859  55.3440 352.2694 0019063 231.3784 253.9158  2.00571258 26859
GPS BIII-6  (PRN 28)    
1 55268U 23009A   25035.37859376  .00000050  00000+0  00000+0 0  9996
2 55268  55.0907 168.0644 0001455  61.5670 298.5690  2.00546882 15261
GPS BIII-7  (PRN 01)    
1 62339U 24242A   25037.24419830 -.00000096  00000+0  00000+0 0  9999
2 62339  54.9960 354.2596 0004582 301.9167  50.7982  2.00555555  1305
